CCSDS_OMM_VERS = 2.0
CREATION_DATE  = 
ORIGINATOR     = 

OBJECT_NAME    = KUIPER-00125
OBJECT_ID      = 2025-228H
CENTER_NAME    = EARTH
REF_FRAME      = TEME
TIME_SYSTEM    = UTC
MEAN_ELEMENT_THEORY = SGP/SGP4

EPOCH          = 2025-11-05T22:31:14.996928
MEAN_MOTION    = 15.34785739
ECCENTRICITY   = .00054356
INCLINATION    = 51.8790
RA_OF_ASC_NODE = 197.8923
ARG_OF_PERICENTER = 221.7443
MEAN_ANOMALY   = 138.3129

EPHEMERIS_TYPE = 0
CLASSIFICATION_TYPE = U
NORAD_CAT_ID   = 65954
ELEMENT_SET_NO = 999
REV_AT_EPOCH   = 476
BSTAR          = .53191099E-3
MEAN_MOTION_DOT = .1788E-3
MEAN_MOTION_DDOT = 0

CCSDS_OMM_VERS = 2.0
CREATION_DATE  = 
ORIGINATOR     = 

OBJECT_NAME    = KUIPER-00126
OBJECT_ID      = 2025-228J
CENTER_NAME    = EARTH
REF_FRAME      = TEME
TIME_SYSTEM    = UTC
MEAN_ELEMENT_THEORY = SGP/SGP4

EPOCH          = 2025-11-05T19:30:15.973632
MEAN_MOTION    = 15.34011017
ECCENTRICITY   = .00056842
INCLINATION    = 51.8794
RA_OF_ASC_NODE = 198.5515
ARG_OF_PERICENTER = 235.7958
MEAN_ANOMALY   = 124.2489

EPHEMERIS_TYPE = 0
CLASSIFICATION_TYPE = U
NORAD_CAT_ID   = 65955
ELEMENT_SET_NO = 999
REV_AT_EPOCH   = 474
BSTAR          = -.67474262E-2
MEAN_MOTION_DOT = -.219486E-2
MEAN_MOTION_DDOT = 0

CCSDS_OMM_VERS = 2.0
CREATION_DATE  = 
ORIGINATOR     = 

OBJECT_NAME    = KUIPER-00127
OBJECT_ID      = 2025-228K
CENTER_NAME    = EARTH
REF_FRAME      = TEME
TIME_SYSTEM    = UTC
MEAN_ELEMENT_THEORY = SGP/SGP4

EPOCH          = 2025-11-05T22:24:22.921632
MEAN_MOTION    = 15.35104588
ECCENTRICITY   = .00057546
INCLINATION    = 51.8793
RA_OF_ASC_NODE = 197.8665
ARG_OF_PERICENTER = 212.8681
MEAN_ANOMALY   = 147.1948

EPHEMERIS_TYPE = 0
CLASSIFICATION_TYPE = U
NORAD_CAT_ID   = 65956
ELEMENT_SET_NO = 999
REV_AT_EPOCH   = 476
BSTAR          = .11413714E-2
MEAN_MOTION_DOT = .39318E-3
MEAN_MOTION_DDOT = 0

CCSDS_OMM_VERS = 2.0
CREATION_DATE  = 
ORIGINATOR     = 

OBJECT_NAME    = KUIPER-00128
OBJECT_ID      = 2025-228L
CENTER_NAME    = EARTH
REF_FRAME      = TEME
TIME_SYSTEM    = UTC
MEAN_ELEMENT_THEORY = SGP/SGP4

EPOCH          = 2025-11-05T22:29:04.881120
MEAN_MOTION    = 15.34884632
ECCENTRICITY   = .00055416
INCLINATION    = 51.8798
RA_OF_ASC_NODE = 197.8907
ARG_OF_PERICENTER = 217.5098
MEAN_ANOMALY   = 142.5502

EPHEMERIS_TYPE = 0
CLASSIFICATION_TYPE = U
NORAD_CAT_ID   = 65957
ELEMENT_SET_NO = 999
REV_AT_EPOCH   = 476
BSTAR          = .49494884E-3
MEAN_MOTION_DOT = .16662E-3
MEAN_MOTION_DDOT = 0

CCSDS_OMM_VERS = 2.0
CREATION_DATE  = 
ORIGINATOR     = 

OBJECT_NAME    = KUIPER-00129
OBJECT_ID      = 2025-228M
CENTER_NAME    = EARTH
REF_FRAME      = TEME
TIME_SYSTEM    = UTC
MEAN_ELEMENT_THEORY = SGP/SGP4

EPOCH          = 2025-11-05T22:28:24.913344
MEAN_MOTION    = 15.34900322
ECCENTRICITY   = .00057006
INCLINATION    = 51.8796
RA_OF_ASC_NODE = 197.8863
ARG_OF_PERICENTER = 211.8846
MEAN_ANOMALY   = 148.1795

EPHEMERIS_TYPE = 0
CLASSIFICATION_TYPE = U
NORAD_CAT_ID   = 65958
ELEMENT_SET_NO = 999
REV_AT_EPOCH   = 476
BSTAR          = .60843425E-3
MEAN_MOTION_DOT = .20592E-3
MEAN_MOTION_DDOT = 0

CCSDS_OMM_VERS = 2.0
CREATION_DATE  = 
ORIGINATOR     = 

OBJECT_NAME    = KUIPER-00130
OBJECT_ID      = 2025-228N
CENTER_NAME    = EARTH
REF_FRAME      = TEME
TIME_SYSTEM    = UTC
MEAN_ELEMENT_THEORY = SGP/SGP4

EPOCH          = 2025-11-05T22:33:15.420384
MEAN_MOTION    = 15.34707722
ECCENTRICITY   = .00050814
INCLINATION    = 51.8791
RA_OF_ASC_NODE = 197.9013
ARG_OF_PERICENTER = 228.3857
MEAN_ANOMALY   = 131.6694

EPHEMERIS_TYPE = 0
CLASSIFICATION_TYPE = U
NORAD_CAT_ID   = 65959
ELEMENT_SET_NO = 999
REV_AT_EPOCH   = 476
BSTAR          = .52846168E-3
MEAN_MOTION_DOT = .17716E-3
MEAN_MOTION_DDOT = 0

CCSDS_OMM_VERS = 2.0
CREATION_DATE  = 
ORIGINATOR     = 

OBJECT_NAME    = KUIPER-00134
OBJECT_ID      = 2025-228P
CENTER_NAME    = EARTH
REF_FRAME      = TEME
TIME_SYSTEM    = UTC
MEAN_ELEMENT_THEORY = SGP/SGP4

EPOCH          = 2025-11-05T22:35:28.544640
MEAN_MOTION    = 15.34604450
ECCENTRICITY   = .00050069
INCLINATION    = 51.8790
RA_OF_ASC_NODE = 197.9112
ARG_OF_PERICENTER = 233.2329
MEAN_ANOMALY   = 126.8198

EPHEMERIS_TYPE = 0
CLASSIFICATION_TYPE = U
NORAD_CAT_ID   = 65960
ELEMENT_SET_NO = 999
REV_AT_EPOCH   = 476
BSTAR          = .54064105E-3
MEAN_MOTION_DOT = .18073E-3
MEAN_MOTION_DDOT = 0

CCSDS_OMM_VERS = 2.0
CREATION_DATE  = 
ORIGINATOR     = 

OBJECT_NAME    = KUIPER-00135
OBJECT_ID      = 2025-228Q
CENTER_NAME    = EARTH
REF_FRAME      = TEME
TIME_SYSTEM    = UTC
MEAN_ELEMENT_THEORY = SGP/SGP4

EPOCH          = 2025-11-05T22:34:59.869344
MEAN_MOTION    = 15.34587515
ECCENTRICITY   = .00049274
INCLINATION    = 51.8803
RA_OF_ASC_NODE = 197.9177
ARG_OF_PERICENTER = 220.2802
MEAN_ANOMALY   = 139.7819

EPHEMERIS_TYPE = 0
CLASSIFICATION_TYPE = U
NORAD_CAT_ID   = 65961
ELEMENT_SET_NO = 999
REV_AT_EPOCH   = 476
BSTAR          = .47336697E-3
MEAN_MOTION_DOT = .15763E-3
MEAN_MOTION_DDOT = 0

CCSDS_OMM_VERS = 2.0
CREATION_DATE  = 
ORIGINATOR     = 

OBJECT_NAME    = KUIPER-00136
OBJECT_ID      = 2025-228R
CENTER_NAME    = EARTH
REF_FRAME      = TEME
TIME_SYSTEM    = UTC
MEAN_ELEMENT_THEORY = SGP/SGP4

EPOCH          = 2025-11-05T22:26:04.258464
MEAN_MOTION    = 15.34970490
ECCENTRICITY   = .00057679
INCLINATION    = 51.8796
RA_OF_ASC_NODE = 197.8762
ARG_OF_PERICENTER = 214.1157
MEAN_ANOMALY   = 145.9459

EPHEMERIS_TYPE = 0
CLASSIFICATION_TYPE = U
NORAD_CAT_ID   = 65962
ELEMENT_SET_NO = 999
REV_AT_EPOCH   = 476
BSTAR          = .49424454E-3
MEAN_MOTION_DOT = .16684E-3
MEAN_MOTION_DDOT = 0

CCSDS_OMM_VERS = 2.0
CREATION_DATE  = 
ORIGINATOR     = 

OBJECT_NAME    = KUIPER-00137
OBJECT_ID      = 2025-228S
CENTER_NAME    = EARTH
REF_FRAME      = TEME
TIME_SYSTEM    = UTC
MEAN_ELEMENT_THEORY = SGP/SGP4

EPOCH          = 2025-11-05T22:33:58.305888
MEAN_MOTION    = 15.34619553
ECCENTRICITY   = .00048631
INCLINATION    = 51.8803
RA_OF_ASC_NODE = 197.9121
ARG_OF_PERICENTER = 226.5827
MEAN_ANOMALY   = 133.4754

EPHEMERIS_TYPE = 0
CLASSIFICATION_TYPE = U
NORAD_CAT_ID   = 65963
ELEMENT_SET_NO = 999
REV_AT_EPOCH   = 476
BSTAR          = .51262301E-3
MEAN_MOTION_DOT = .17123E-3
MEAN_MOTION_DDOT = 0

CCSDS_OMM_VERS = 2.0
CREATION_DATE  = 
ORIGINATOR     = 

OBJECT_NAME    = KUIPER-00138
OBJECT_ID      = 2025-228T
CENTER_NAME    = EARTH
REF_FRAME      = TEME
TIME_SYSTEM    = UTC
MEAN_ELEMENT_THEORY = SGP/SGP4

EPOCH          = 2025-11-05T22:37:54.338592
MEAN_MOTION    = 15.34363695
ECCENTRICITY   = .00060684
INCLINATION    = 51.8798
RA_OF_ASC_NODE = 197.9240
ARG_OF_PERICENTER = 240.5471
MEAN_ANOMALY   = 119.4910

EPHEMERIS_TYPE = 0
CLASSIFICATION_TYPE = U
NORAD_CAT_ID   = 65964
ELEMENT_SET_NO = 999
REV_AT_EPOCH   = 476
BSTAR          = .8031945E-3
MEAN_MOTION_DOT = .26863E-3
MEAN_MOTION_DDOT = 0

CCSDS_OMM_VERS = 2.0
CREATION_DATE  = 
ORIGINATOR     = 

OBJECT_NAME    = KUIPER-00140
OBJECT_ID      = 2025-228U
CENTER_NAME    = EARTH
REF_FRAME      = TEME
TIME_SYSTEM    = UTC
MEAN_ELEMENT_THEORY = SGP/SGP4

EPOCH          = 2025-11-05T22:38:52.763136
MEAN_MOTION    = 15.34441793
ECCENTRICITY   = .00053865
INCLINATION    = 51.8802
RA_OF_ASC_NODE = 197.9318
ARG_OF_PERICENTER = 241.4039
MEAN_ANOMALY   = 118.6405

EPHEMERIS_TYPE = 0
CLASSIFICATION_TYPE = U
NORAD_CAT_ID   = 65965
ELEMENT_SET_NO = 999
REV_AT_EPOCH   = 476
BSTAR          = .54128066E-3
MEAN_MOTION_DOT = .18001E-3
MEAN_MOTION_DDOT = 0

